CCSDS_OMM_VERS = 2.0
CREATION_DATE  = 
ORIGINATOR     = 

OBJECT_NAME    = STARLINK-35733
OBJECT_ID      = 2025-244U
CENTER_NAME    = EARTH
REF_FRAME      = TEME
TIME_SYSTEM    = UTC
MEAN_ELEMENT_THEORY = SGP/SGP4

EPOCH          = 2025-11-20T18:44:21.201216
MEAN_MOTION    = 15.49376808
ECCENTRICITY   = .00016862
INCLINATION    = 53.1600
RA_OF_ASC_NODE = 19.4302
ARG_OF_PERICENTER = 99.4097
MEAN_ANOMALY   = 260.7103

EPHEMERIS_TYPE = 0
CLASSIFICATION_TYPE = U
NORAD_CAT_ID   = 66224
ELEMENT_SET_NO = 999
REV_AT_EPOCH   = 493
BSTAR          = .11798225E-2
MEAN_MOTION_DOT = .65882E-3
MEAN_MOTION_DDOT = 0

CCSDS_OMM_VERS = 2.0
CREATION_DATE  = 
ORIGINATOR     = 

OBJECT_NAME    = STARLINK-35734
OBJECT_ID      = 2025-244V
CENTER_NAME    = EARTH
REF_FRAME      = TEME
TIME_SYSTEM    = UTC
MEAN_ELEMENT_THEORY = SGP/SGP4

EPOCH          = 2025-11-20T18:44:50.259264
MEAN_MOTION    = 15.49322233
ECCENTRICITY   = .0002931
INCLINATION    = 53.1599
RA_OF_ASC_NODE = 19.4320
ARG_OF_PERICENTER = 43.4338
MEAN_ANOMALY   = 316.6901

EPHEMERIS_TYPE = 0
CLASSIFICATION_TYPE = U
NORAD_CAT_ID   = 66225
ELEMENT_SET_NO = 999
REV_AT_EPOCH   = 493
BSTAR          = .15879214E-2
MEAN_MOTION_DOT = .88926E-3
MEAN_MOTION_DDOT = 0

CCSDS_OMM_VERS = 2.0
CREATION_DATE  = 
ORIGINATOR     = 

OBJECT_NAME    = STARLINK-34466
OBJECT_ID      = 2025-244W
CENTER_NAME    = EARTH
REF_FRAME      = TEME
TIME_SYSTEM    = UTC
MEAN_ELEMENT_THEORY = SGP/SGP4

EPOCH          = 2025-11-20T18:43:52.154400
MEAN_MOTION    = 15.49327709
ECCENTRICITY   = .0001458
INCLINATION    = 53.1599
RA_OF_ASC_NODE = 19.4268
ARG_OF_PERICENTER = 97.1900
MEAN_ANOMALY   = 262.9275

EPHEMERIS_TYPE = 0
CLASSIFICATION_TYPE = U
NORAD_CAT_ID   = 66226
ELEMENT_SET_NO = 999
REV_AT_EPOCH   = 493
BSTAR          = .12691472E-2
MEAN_MOTION_DOT = .70826E-3
MEAN_MOTION_DDOT = 0

CCSDS_OMM_VERS = 2.0
CREATION_DATE  = 
ORIGINATOR     = 

OBJECT_NAME    = STARLINK-34882
OBJECT_ID      = 2025-244X
CENTER_NAME    = EARTH
REF_FRAME      = TEME
TIME_SYSTEM    = UTC
MEAN_ELEMENT_THEORY = SGP/SGP4

EPOCH          = 2025-11-20T17:10:28.399008
MEAN_MOTION    = 15.49262642
ECCENTRICITY   = .00015373
INCLINATION    = 53.1600
RA_OF_ASC_NODE = 19.7322
ARG_OF_PERICENTER = 75.2598
MEAN_ANOMALY   = 284.8581

EPHEMERIS_TYPE = 0
CLASSIFICATION_TYPE = U
NORAD_CAT_ID   = 66227
ELEMENT_SET_NO = 999
REV_AT_EPOCH   = 492
BSTAR          = .79970183E-3
MEAN_MOTION_DOT = .44207E-3
MEAN_MOTION_DDOT = 0

CCSDS_OMM_VERS = 2.0
CREATION_DATE  = 
ORIGINATOR     = 

OBJECT_NAME    = STARLINK-35731
OBJECT_ID      = 2025-244Y
CENTER_NAME    = EARTH
REF_FRAME      = TEME
TIME_SYSTEM    = UTC
MEAN_ELEMENT_THEORY = SGP/SGP4

EPOCH          = 2025-11-20T15:37:03.311328
MEAN_MOTION    = 15.49316106
ECCENTRICITY   = .00012207
INCLINATION    = 53.1601
RA_OF_ASC_NODE = 20.0386
ARG_OF_PERICENTER = 85.2326
MEAN_ANOMALY   = 274.8822

EPHEMERIS_TYPE = 0
CLASSIFICATION_TYPE = U
NORAD_CAT_ID   = 66228
ELEMENT_SET_NO = 999
REV_AT_EPOCH   = 491
BSTAR          = .96217537E-3
MEAN_MOTION_DOT = .53444E-3
MEAN_MOTION_DDOT = 0

CCSDS_OMM_VERS = 2.0
CREATION_DATE  = 
ORIGINATOR     = 

OBJECT_NAME    = STARLINK-35758
OBJECT_ID      = 2025-244Z
CENTER_NAME    = EARTH
REF_FRAME      = TEME
TIME_SYSTEM    = UTC
MEAN_ELEMENT_THEORY = SGP/SGP4

EPOCH          = 2025-11-20T18:42:21.558816
MEAN_MOTION    = 15.49323036
ECCENTRICITY   = .00018399
INCLINATION    = 53.1601
RA_OF_ASC_NODE = 19.4206
ARG_OF_PERICENTER = 56.4020
MEAN_ANOMALY   = 303.7164

EPHEMERIS_TYPE = 0
CLASSIFICATION_TYPE = U
NORAD_CAT_ID   = 66229
ELEMENT_SET_NO = 999
REV_AT_EPOCH   = 493
BSTAR          = .1158584E-2
MEAN_MOTION_DOT = .64555E-3
MEAN_MOTION_DDOT = 0

CCSDS_OMM_VERS = 2.0
CREATION_DATE  = 
ORIGINATOR     = 

OBJECT_NAME    = STARLINK-35736
OBJECT_ID      = 2025-244AA
CENTER_NAME    = EARTH
REF_FRAME      = TEME
TIME_SYSTEM    = UTC
MEAN_ELEMENT_THEORY = SGP/SGP4

EPOCH          = 2025-11-20T17:08:58.082496
MEAN_MOTION    = 15.49338608
ECCENTRICITY   = .00012742
INCLINATION    = 53.1601
RA_OF_ASC_NODE = 19.7258
ARG_OF_PERICENTER = 72.3932
MEAN_ANOMALY   = 287.7216

EPHEMERIS_TYPE = 0
CLASSIFICATION_TYPE = U
NORAD_CAT_ID   = 66230
ELEMENT_SET_NO = 999
REV_AT_EPOCH   = 492
BSTAR          = .12642039E-2
MEAN_MOTION_DOT = .70573E-3
MEAN_MOTION_DDOT = 0

CCSDS_OMM_VERS = 2.0
CREATION_DATE  = 
ORIGINATOR     = 

OBJECT_NAME    = STARLINK-35735
OBJECT_ID      = 2025-244AB
CENTER_NAME    = EARTH
REF_FRAME      = TEME
TIME_SYSTEM    = UTC
MEAN_ELEMENT_THEORY = SGP/SGP4

EPOCH          = 2025-11-20T17:08:28.642560
MEAN_MOTION    = 15.49321586
ECCENTRICITY   = .00016218
INCLINATION    = 53.1601
RA_OF_ASC_NODE = 19.7239
ARG_OF_PERICENTER = 57.2562
MEAN_ANOMALY   = 302.8604

EPHEMERIS_TYPE = 0
CLASSIFICATION_TYPE = U
NORAD_CAT_ID   = 66231
ELEMENT_SET_NO = 999
REV_AT_EPOCH   = 492
BSTAR          = .10191444E-2
MEAN_MOTION_DOT = .5667E-3
MEAN_MOTION_DDOT = 0

CCSDS_OMM_VERS = 2.0
CREATION_DATE  = 
ORIGINATOR     = 

OBJECT_NAME    = STARLINK-35753
OBJECT_ID      = 2025-244AC
CENTER_NAME    = EARTH
REF_FRAME      = TEME
TIME_SYSTEM    = UTC
MEAN_ELEMENT_THEORY = SGP/SGP4

EPOCH          = 2025-11-20T15:35:05.310528
MEAN_MOTION    = 15.49334309
ECCENTRICITY   = .00014182
INCLINATION    = 53.1601
RA_OF_ASC_NODE = 20.0304
ARG_OF_PERICENTER = 84.9741
MEAN_ANOMALY   = 275.1430

EPHEMERIS_TYPE = 0
CLASSIFICATION_TYPE = U
NORAD_CAT_ID   = 66232
ELEMENT_SET_NO = 999
REV_AT_EPOCH   = 491
BSTAR          = .11903146E-2
MEAN_MOTION_DOT = .66376E-3
MEAN_MOTION_DDOT = 0

CCSDS_OMM_VERS = 2.0
CREATION_DATE  = 
ORIGINATOR     = 

OBJECT_NAME    = STARLINK-35626
OBJECT_ID      = 2025-244AD
CENTER_NAME    = EARTH
REF_FRAME      = TEME
TIME_SYSTEM    = UTC
MEAN_ELEMENT_THEORY = SGP/SGP4

EPOCH          = 2025-11-20T18:40:22.966176
MEAN_MOTION    = 15.49323098
ECCENTRICITY   = .00021025
INCLINATION    = 53.1602
RA_OF_ASC_NODE = 19.4114
ARG_OF_PERICENTER = 54.4515
MEAN_ANOMALY   = 305.6690

EPHEMERIS_TYPE = 0
CLASSIFICATION_TYPE = U
NORAD_CAT_ID   = 66233
ELEMENT_SET_NO = 999
REV_AT_EPOCH   = 493
BSTAR          = .14522903E-2
MEAN_MOTION_DOT = .81209E-3
MEAN_MOTION_DDOT = 0

CCSDS_OMM_VERS = 2.0
CREATION_DATE  = 
ORIGINATOR     = 

OBJECT_NAME    = STARLINK-35537
OBJECT_ID      = 2025-245A
CENTER_NAME    = EARTH
REF_FRAME      = TEME
TIME_SYSTEM    = UTC
MEAN_ELEMENT_THEORY = SGP/SGP4

EPOCH          = 2025-11-21T00:00:02.000160
MEAN_MOTION    = 15.49246334
ECCENTRICITY   = .00012958
INCLINATION    = 53.1606
RA_OF_ASC_NODE = 72.2317
ARG_OF_PERICENTER = 105.9268
MEAN_ANOMALY   = 1.1678

EPHEMERIS_TYPE = 0
CLASSIFICATION_TYPE = U
NORAD_CAT_ID   = 66234
ELEMENT_SET_NO = 999
REV_AT_EPOCH   = 461
BSTAR          = .12223973E-2
MEAN_MOTION_DOT = .6798E-3
MEAN_MOTION_DDOT = 0

CCSDS_OMM_VERS = 2.0
CREATION_DATE  = 
ORIGINATOR     = 

OBJECT_NAME    = STARLINK-35541
OBJECT_ID      = 2025-245B
CENTER_NAME    = EARTH
REF_FRAME      = TEME
TIME_SYSTEM    = UTC
MEAN_ELEMENT_THEORY = SGP/SGP4

EPOCH          = 2025-11-21T00:00:02.000160
MEAN_MOTION    = 15.49236883
ECCENTRICITY   = .00011651
INCLINATION    = 53.1600
RA_OF_ASC_NODE = 72.2276
ARG_OF_PERICENTER = 96.5738
MEAN_ANOMALY   = 12.4279

EPHEMERIS_TYPE = 0
CLASSIFICATION_TYPE = U
NORAD_CAT_ID   = 66235
ELEMENT_SET_NO = 999
REV_AT_EPOCH   = 455
BSTAR          = .136103E-2
MEAN_MOTION_DOT = .75791E-3
MEAN_MOTION_DDOT = 0

